CTC2_L_00098001-01
1 51719U 26730AD  26037.47791667  .00000000  00000+0  00000-0 0  9995
2 51719  55.0000   0.0000 0000000   0.0000   0.0000 14.60983372    19
CTC2_L_00098001-02
1 51720U 24079LA  26037.47791667  .00000000  00000+0  00000-0 0  9991
2 51720  55.0000   0.0000 0000000   0.0000  90.0000 14.60983372    10
CTC2_L_00098001-03
1 51721U 25247ZU  26037.47791667  .00000000  00000+0  00000-0 0  9990
2 51721  55.0000   0.0000 0000000   0.0000 180.0000 14.60983372    11
CTC2_L_00098001-04
1 51722U 23533ZK  26037.47791667  .00000000  00000+0  00000-0 0  9997
2 51722  55.0000   0.0000 0000000   0.0000 270.0000 14.60983372    12
CTC2_L_00098002-01
1 51723U 25229AE  26037.47791667  .00000000  00000+0  00000-0 0  9992
2 51723  55.0000  12.0000 0000000   0.0000  12.0000 14.60983372    10
CTC2_L_00098002-02
1 51724U 22325AK  26037.47791667  .00000000  00000+0  00000-0 0  9997
2 51724  55.0000  12.0000 0000000   0.0000 102.0000 14.60983372    11
CTC2_L_00098002-03
1 51725U 24623XH  26037.47791667  .00000000  00000+0  00000-0 0  9991
2 51725  55.0000  12.0000 0000000   0.0000 192.0000 14.60983372    11
CTC2_L_00098002-04
1 51726U 25593SD  26037.47791667  .00000000  00000+0  00000-0 0  9999
2 51726  55.0000  12.0000 0000000   0.0000 282.0000 14.60983372    12
CTC2_L_00098003-01
1 51727U 26446VA  26037.47791667  .00000000  00000+0  00000-0 0  9998
2 51727  55.0000  24.0000 0000000   0.0000  24.0000 14.60983372    10
CTC2_L_00098003-02
1 51728U 24889PW  26037.47791667  .00000000  00000+0  00000-0 0  9998
2 51728  55.0000  24.0000 0000000   0.0000 114.0000 14.60983372    11
CTC2_L_00098003-03
1 51729U 26914PQ  26037.47791667  .00000000  00000+0  00000-0 0  9990
2 51729  55.0000  24.0000 0000000   0.0000 204.0000 14.60983372    12
CTC2_L_00098003-04
1 51730U 24826II  26037.47791667  .00000000  00000+0  00000-0 0  9992
2 51730  55.0000  24.0000 0000000   0.0000 294.0000 14.60983372    13
CTC2_L_00098004-01
1 51731U 22123DB  26037.47791667  .00000000  00000+0  00000-0 0  9991
2 51731  55.0000  36.0000 0000000   0.0000  36.0000 14.60983372    11
CTC2_L_00098004-02
1 51732U 25136BF  26037.47791667  .00000000  00000+0  00000-0 0  9999
2 51732  55.0000  36.0000 0000000   0.0000 126.0000 14.60983372    12
CTC2_L_00098004-03
1 51733U 24377NA  26037.47791667  .00000000  00000+0  00000-0 0  9996
2 51733  55.0000  36.0000 0000000   0.0000 216.0000 14.60983372    13
CTC2_L_00098004-04
1 51734U 26346AC  26037.47791667  .00000000  00000+0  00000-0 0  9995
2 51734  55.0000  36.0000 0000000   0.0000 306.0000 14.60983372    14
CTC2_L_00098005-01
1 51735U 24461CD  26037.47791667  .00000000  00000+0  00000-0 0  9992
2 51735  55.0000  48.0000 0000000   0.0000  48.0000 14.60983372    11
CTC2_L_00098005-02
1 51736U 23476VR  26037.47791667  .00000000  00000+0  00000-0 0  9998
2 51736  55.0000  48.0000 0000000   0.0000 138.0000 14.60983372    12
CTC2_L_00098005-03
1 51737U 24773MP  26037.47791667  .00000000  00000+0  00000-0 0  9990
2 51737  55.0000  48.0000 0000000   0.0000 228.0000 14.60983372    13
CTC2_L_00098005-04
1 51738U 24797FT  26037.47791667  .00000000  00000+0  00000-0 0  9997
2 51738  55.0000  48.0000 0000000   0.0000 318.0000 14.60983372    14
CTC2_L_00098006-01
1 51739U 26687RL  26037.47791667  .00000000  00000+0  00000-0 0  9998
2 51739  55.0000  60.0000 0000000   0.0000  60.0000 14.60983372    13
CTC2_L_00098006-02
1 51740U 25009TB  26037.47791667  .00000000  00000+0  00000-0 0  9997
2 51740  55.0000  60.0000 0000000   0.0000 150.0000 14.60983372    15
CTC2_L_00098006-03
1 51741U 25928SD  26037.47791667  .00000000  00000+0  00000-0 0  9998
2 51741  55.0000  60.0000 0000000   0.0000 240.0000 14.60983372    16
CTC2_L_00098006-04
1 51742U 22923DI  26037.47791667  .00000000  00000+0  00000-0 0  9991
2 51742  55.0000  60.0000 0000000   0.0000 330.0000 14.60983372    17
CTC2_L_00098007-01
1 51743U 25056HB  26037.47791667  .00000000  00000+0  00000-0 0  9992
2 51743  55.0000  72.0000 0000000   0.0000  72.0000 14.60983372    14
CTC2_L_00098007-02
1 51744U 23215UG  26037.47791667  .00000000  00000+0  00000-0 0  9998
2 51744  55.0000  72.0000 0000000   0.0000 162.0000 14.60983372    15
CTC2_L_00098007-03
1 51745U 24436TX  26037.47791667  .00000000  00000+0  00000-0 0  9995
2 51745  55.0000  72.0000 0000000   0.0000 252.0000 14.60983372    16
CTC2_L_00098007-04
1 51746U 23806P   26037.47791667  .00000000  00000+0  00000-0 0  9996
2 51746  55.0000  72.0000 0000000   0.0000 342.0000 14.60983372    17
CTC2_L_00098008-01
1 51747U 26141UX  26037.47791667  .00000000  00000+0  00000-0 0  9992
2 51747  55.0000  84.0000 0000000   0.0000  84.0000 14.60983372    14
CTC2_L_00098008-02
1 51748U 24536VA  26037.47791667  .00000000  00000+0  00000-0 0  9999
2 51748  55.0000  84.0000 0000000   0.0000 174.0000 14.60983372    15
CTC2_L_00098008-03
1 51749U 23804DJ  26037.47791667  .00000000  00000+0  00000-0 0  9997
2 51749  55.0000  84.0000 0000000   0.0000 264.0000 14.60983372    16
CTC2_L_00098008-04
1 51750U 23369IS  26037.47791667  .00000000  00000+0  00000-0 0  9995
2 51750  55.0000  84.0000 0000000   0.0000 354.0000 14.60983372    18
CTC2_L_00098009-01
1 51751U 22867DQ  26037.47791667  .00000000  00000+0  00000-0 0  9998
2 51751  55.0000  96.0000 0000000   0.0000  96.0000 14.60983372    15
CTC2_L_00098009-02
1 51752U 23793MP  26037.47791667  .00000000  00000+0  00000-0 0  9998
2 51752  55.0000  96.0000 0000000   0.0000 186.0000 14.60983372    16
CTC2_L_00098009-03
1 51753U 24013TW  26037.47791667  .00000000  00000+0  00000-0 0  9995
2 51753  55.0000  96.0000 0000000   0.0000 276.0000 14.60983372    17
CTC2_L_00098009-04
1 51754U 22148SD  26037.47791667  .00000000  00000+0  00000-0 0  9993
2 51754  55.0000  96.0000 0000000   0.0000   6.0000 14.60983372    19
CTC2_L_00098010-01
1 51755U 25538WA  26037.47791667  .00000000  00000+0  00000-0 0  9990
2 51755  55.0000 108.0000 0000000   0.0000 108.0000 14.60983372    17
CTC2_L_00098010-02
1 51756U 22839IV  26037.47791667  .00000000  00000+0  00000-0 0  9992
2 51756  55.0000 108.0000 0000000   0.0000 198.0000 14.60983372    17
CTC2_L_00098010-03
1 51757U 24468CB  26037.47791667  .00000000  00000+0  00000-0 0  9993
2 51757  55.0000 108.0000 0000000   0.0000 288.0000 14.60983372    18
CTC2_L_00098010-04
1 51758U 24394WE  26037.47791667  .00000000  00000+0  00000-0 0  9992
2 51758  55.0000 108.0000 0000000   0.0000  18.0000 14.60983372    10
CTC2_L_00098011-01
1 51759U 25961YU  26037.47791667  .00000000  00000+0  00000-0 0  9994
2 51759  55.0000 120.0000 0000000   0.0000 120.0000 14.60983372    19
CTC2_L_00098011-02
1 51760U 26413HA  26037.47791667  .00000000  00000+0  00000-0 0  9999
2 51760  55.0000 120.0000 0000000   0.0000 210.0000 14.60983372    11
CTC2_L_00098011-03
1 51761U 26347EA  26037.47791667  .00000000  00000+0  00000-0 0  9996
2 51761  55.0000 120.0000 0000000   0.0000 300.0000 14.60983372    12
CTC2_L_00098011-04
1 51762U 25293XF  26037.47791667  .00000000  00000+0  00000-0 0  9996
2 51762  55.0000 120.0000 0000000   0.0000  30.0000 14.60983372    13
CTC2_L_00098012-01
1 51763U 24259QR  26037.47791667  .00000000  00000+0  00000-0 0  9998
2 51763  55.0000 132.0000 0000000   0.0000 132.0000 14.60983372    10
CTC2_L_00098012-02
1 51764U 23047CW  26037.47791667  .00000000  00000+0  00000-0 0  9993
2 51764  55.0000 132.0000 0000000   0.0000 222.0000 14.60983372    11
CTC2_L_00098012-03
1 51765U 23232MQ  26037.47791667  .00000000  00000+0  00000-0 0  9990
2 51765  55.0000 132.0000 0000000   0.0000 312.0000 14.60983372    12
CTC2_L_00098012-04
1 51766U 26418CH  26037.47791667  .00000000  00000+0  00000-0 0  9990
2 51766  55.0000 132.0000 0000000   0.0000  42.0000 14.60983372    13
CTC2_L_00098013-01
1 51767U 25650HA  26037.47791667  .00000000  00000+0  00000-0 0  9998
2 51767  55.0000 144.0000 0000000   0.0000 144.0000 14.60983372    10
CTC2_L_00098013-02
1 51768U 25094VV  26037.47791667  .00000000  00000+0  00000-0 0  9991
2 51768  55.0000 144.0000 0000000   0.0000 234.0000 14.60983372    11
CTC2_L_00098013-03
1 51769U 22844KP  26037.47791667  .00000000  00000+0  00000-0 0  9992
2 51769  55.0000 144.0000 0000000   0.0000 324.0000 14.60983372    12
CTC2_L_00098013-04
1 51770U 23036LZ  26037.47791667  .00000000  00000+0  00000-0 0  9998
2 51770  55.0000 144.0000 0000000   0.0000  54.0000 14.60983372    14
CTC2_L_00098014-01
1 51771U 24390FW  26037.47791667  .00000000  00000+0  00000-0 0  9993
2 51771  55.0000 156.0000 0000000   0.0000 156.0000 14.60983372    11
CTC2_L_00098014-02
1 51772U 25197YB  26037.47791667  .00000000  00000+0  00000-0 0  9990
2 51772  55.0000 156.0000 0000000   0.0000 246.0000 14.60983372    12
CTC2_L_00098014-03
1 51773U 24194LP  26037.47791667  .00000000  00000+0  00000-0 0  9997
2 51773  55.0000 156.0000 0000000   0.0000 336.0000 14.60983372    13
CTC2_L_00098014-04
1 51774U 24554ZK  26037.47791667  .00000000  00000+0  00000-0 0  9998
2 51774  55.0000 156.0000 0000000   0.0000  66.0000 14.60983372    14
CTC2_L_00098015-01
1 51775U 26354QX  26037.47791667  .00000000  00000+0  00000-0 0  9999
2 51775  55.0000 168.0000 0000000   0.0000 168.0000 14.60983372    11
CTC2_L_00098015-02
1 51776U 25639KE  26037.47791667  .00000000  00000+0  00000-0 0  9995
2 51776  55.0000 168.0000 0000000   0.0000 258.0000 14.60983372    12
CTC2_L_00098015-03
1 51777U 24038AJ  26037.47791667  .00000000  00000+0  00000-0 0  9998
2 51777  55.0000 168.0000 0000000   0.0000 348.0000 14.60983372    13
CTC2_L_00098015-04
1 51778U 24956LB  26037.47791667  .00000000  00000+0  00000-0 0  9998
2 51778  55.0000 168.0000 0000000   0.0000  78.0000 14.60983372    14
CTC2_L_00098016-01
1 51779U 26680QT  26037.47791667  .00000000  00000+0  00000-0 0  9995
2 51779  55.0000 180.0000 0000000   0.0000 180.0000 14.60983372    13
CTC2_L_00098016-02
1 51780U 26658VV  26037.47791667  .00000000  00000+0  00000-0 0  9992
2 51780  55.0000 180.0000 0000000   0.0000 270.0000 14.60983372    15
